{
  "norad_id": 64600,
  "name": "STARLINK-34504",
  "history": [
    {
      "epoch": "2026-03-28T17:21:01.762848",
      "apogee_km": 476.01440226371415,
      "perigee_km": 474.44292551698345,
      "latitude_deg": -52.09023999863109,
      "longitude_deg": -10.598041280172765,
      "semi_major_axis_km": 6853.3656638903485,
      "eccentricity": 0.00011465,
      "inclination_deg": 53.1577,
      "raan_deg": 247.2083,
      "arg_perigee_deg": 45.9498,
      "mean_anomaly_deg": 314.1597,
      "mean_motion_rev_day": 15.30195447
    }
  ]
}